CCSDS_OMM_VERS = 2.0
CREATION_DATE  = 
ORIGINATOR     = 

OBJECT_NAME    = COSMOS 2242
OBJECT_ID      = 1993-024A
CENTER_NAME    = EARTH
REF_FRAME      = TEME
TIME_SYSTEM    = UTC
MEAN_ELEMENT_THEORY = SGP/SGP4

EPOCH          = 2026-04-03T12:11:11.747040
MEAN_MOTION    = 14.96667696
ECCENTRICITY   = .00154688
INCLINATION    = 82.5173
RA_OF_ASC_NODE = 242.9710
ARG_OF_PERICENTER = 218.0779
MEAN_ANOMALY   = 141.9351

EPHEMERIS_TYPE = 0
CLASSIFICATION_TYPE = U
NORAD_CAT_ID   = 22626
ELEMENT_SET_NO = 999
REV_AT_EPOCH   = 78410
BSTAR          = .34303701E-3
MEAN_MOTION_DOT = .3947E-4
MEAN_MOTION_DDOT = 0

CCSDS_OMM_VERS = 2.0
CREATION_DATE  = 
ORIGINATOR     = 

OBJECT_NAME    = SL-16 R/B
OBJECT_ID      = 1993-059B
CENTER_NAME    = EARTH
REF_FRAME      = TEME
TIME_SYSTEM    = UTC
MEAN_ELEMENT_THEORY = SGP/SGP4

EPOCH          = 2026-04-03T00:56:22.037280
MEAN_MOTION    = 14.17234614
ECCENTRICITY   = .00171343
INCLINATION    = 70.9907
RA_OF_ASC_NODE = 319.7812
ARG_OF_PERICENTER = 180.6054
MEAN_ANOMALY   = 179.5052

EPHEMERIS_TYPE = 0
CLASSIFICATION_TYPE = U
NORAD_CAT_ID   = 22803
ELEMENT_SET_NO = 999
REV_AT_EPOCH   = 68298
BSTAR          = .304762E-4
MEAN_MOTION_DOT = .14E-6
MEAN_MOTION_DDOT = 0

CCSDS_OMM_VERS = 2.0
CREATION_DATE  = 
ORIGINATOR     = 

OBJECT_NAME    = ARIANE 40 R/B
OBJECT_ID      = 1993-061H
CENTER_NAME    = EARTH
REF_FRAME      = TEME
TIME_SYSTEM    = UTC
MEAN_ELEMENT_THEORY = SGP/SGP4

EPOCH          = 2026-04-03T15:04:16.225248
MEAN_MOTION    = 14.32875293
ECCENTRICITY   = .00103158
INCLINATION    = 98.4871
RA_OF_ASC_NODE = 162.0179
ARG_OF_PERICENTER = 204.3371
MEAN_ANOMALY   = 155.7327

EPHEMERIS_TYPE = 0
CLASSIFICATION_TYPE = U
NORAD_CAT_ID   = 22830
ELEMENT_SET_NO = 999
REV_AT_EPOCH   = 69767
BSTAR          = .14747422E-3
MEAN_MOTION_DOT = .36E-5
MEAN_MOTION_DDOT = 0

CCSDS_OMM_VERS = 2.0
CREATION_DATE  = 
ORIGINATOR     = 

OBJECT_NAME    = COSMOS 2278
OBJECT_ID      = 1994-023A
CENTER_NAME    = EARTH
REF_FRAME      = TEME
TIME_SYSTEM    = UTC
MEAN_ELEMENT_THEORY = SGP/SGP4

EPOCH          = 2026-04-03T11:49:06.828096
MEAN_MOTION    = 14.14374884
ECCENTRICITY   = .00093198
INCLINATION    = 71.0506
RA_OF_ASC_NODE = 123.2078
ARG_OF_PERICENTER = 336.5265
MEAN_ANOMALY   = 23.5431

EPHEMERIS_TYPE = 0
CLASSIFICATION_TYPE = U
NORAD_CAT_ID   = 23087
ELEMENT_SET_NO = 999
REV_AT_EPOCH   = 64831
BSTAR          = .24197813E-4
MEAN_MOTION_DOT = -.1E-7
MEAN_MOTION_DDOT = 0

CCSDS_OMM_VERS = 2.0
CREATION_DATE  = 
ORIGINATOR     = 

OBJECT_NAME    = SL-16 R/B
OBJECT_ID      = 1994-023B
CENTER_NAME    = EARTH
REF_FRAME      = TEME
TIME_SYSTEM    = UTC
MEAN_ELEMENT_THEORY = SGP/SGP4

EPOCH          = 2026-04-03T12:39:56.887200
MEAN_MOTION    = 14.15019299
ECCENTRICITY   = .00055713
INCLINATION    = 71.0030
RA_OF_ASC_NODE = 18.7238
ARG_OF_PERICENTER = 263.9506
MEAN_ANOMALY   = 96.0981

EPHEMERIS_TYPE = 0
CLASSIFICATION_TYPE = U
NORAD_CAT_ID   = 23088
ELEMENT_SET_NO = 999
REV_AT_EPOCH   = 64960
BSTAR          = .13708301E-3
MEAN_MOTION_DOT = .218E-5
MEAN_MOTION_DDOT = 0

CCSDS_OMM_VERS = 2.0
CREATION_DATE  = 
ORIGINATOR     = 

OBJECT_NAME    = SL-16 R/B
OBJECT_ID      = 1994-074B
CENTER_NAME    = EARTH
REF_FRAME      = TEME
TIME_SYSTEM    = UTC
MEAN_ELEMENT_THEORY = SGP/SGP4

EPOCH          = 2026-04-03T15:00:46.890144
MEAN_MOTION    = 14.79438623
ECCENTRICITY   = .000766
INCLINATION    = 97.7071
RA_OF_ASC_NODE = 123.4294
ARG_OF_PERICENTER = 131.8872
MEAN_ANOMALY   = 342.3107

EPHEMERIS_TYPE = 0
CLASSIFICATION_TYPE = U
NORAD_CAT_ID   = 23343
ELEMENT_SET_NO = 999
REV_AT_EPOCH   = 69093
BSTAR          = .11806339E-3
MEAN_MOTION_DOT = .832E-5
MEAN_MOTION_DDOT = 0

CCSDS_OMM_VERS = 2.0
CREATION_DATE  = 
ORIGINATOR     = 

OBJECT_NAME    = SL-16 R/B
OBJECT_ID      = 1994-077B
CENTER_NAME    = EARTH
REF_FRAME      = TEME
TIME_SYSTEM    = UTC
MEAN_ELEMENT_THEORY = SGP/SGP4

EPOCH          = 2026-04-03T15:23:00.484512
MEAN_MOTION    = 14.15568311
ECCENTRICITY   = .00016228
INCLINATION    = 70.9821
RA_OF_ASC_NODE = 299.9976
ARG_OF_PERICENTER = 190.7363
MEAN_ANOMALY   = 169.3725

EPHEMERIS_TYPE = 0
CLASSIFICATION_TYPE = U
NORAD_CAT_ID   = 23405
ELEMENT_SET_NO = 999
REV_AT_EPOCH   = 61976
BSTAR          = -.71576357E-4
MEAN_MOTION_DOT = -.188E-5
MEAN_MOTION_DDOT = 0

CCSDS_OMM_VERS = 2.0
CREATION_DATE  = 
ORIGINATOR     = 

OBJECT_NAME    = ARIANE 40+ R/B
OBJECT_ID      = 1995-021B
CENTER_NAME    = EARTH
REF_FRAME      = TEME
TIME_SYSTEM    = UTC
MEAN_ELEMENT_THEORY = SGP/SGP4

EPOCH          = 2026-04-03T15:20:07.973952
MEAN_MOTION    = 14.39791701
ECCENTRICITY   = .00078502
INCLINATION    = 98.4454
RA_OF_ASC_NODE = 164.7782
ARG_OF_PERICENTER = 72.3160
MEAN_ANOMALY   = 52.9936

EPHEMERIS_TYPE = 0
CLASSIFICATION_TYPE = U
NORAD_CAT_ID   = 23561
ELEMENT_SET_NO = 999
REV_AT_EPOCH   = 62283
BSTAR          = .17359739E-3
MEAN_MOTION_DOT = .501E-5
MEAN_MOTION_DDOT = 0

CCSDS_OMM_VERS = 2.0
CREATION_DATE  = 
ORIGINATOR     = 

OBJECT_NAME    = SL-16 R/B
OBJECT_ID      = 1995-058B
CENTER_NAME    = EARTH
REF_FRAME      = TEME
TIME_SYSTEM    = UTC
MEAN_ELEMENT_THEORY = SGP/SGP4

EPOCH          = 2026-04-03T12:11:18.659904
MEAN_MOTION    = 14.15497860
ECCENTRICITY   = .00102697
INCLINATION    = 71.0192
RA_OF_ASC_NODE = 128.1524
ARG_OF_PERICENTER = 80.2061
MEAN_ANOMALY   = 280.0221

EPHEMERIS_TYPE = 0
CLASSIFICATION_TYPE = U
NORAD_CAT_ID   = 23705
ELEMENT_SET_NO = 999
REV_AT_EPOCH   = 57136
BSTAR          = -.10657853E-4
MEAN_MOTION_DOT = -.68E-6
MEAN_MOTION_DDOT = 0

CCSDS_OMM_VERS = 2.0
CREATION_DATE  = 
ORIGINATOR     = 

OBJECT_NAME    = SL-16 R/B
OBJECT_ID      = 1996-051B
CENTER_NAME    = EARTH
REF_FRAME      = TEME
TIME_SYSTEM    = UTC
MEAN_ELEMENT_THEORY = SGP/SGP4

EPOCH          = 2026-04-03T12:40:57.041472
MEAN_MOTION    = 14.12423229
ECCENTRICITY   = .00131365
INCLINATION    = 70.7581
RA_OF_ASC_NODE = 122.6662
ARG_OF_PERICENTER = 107.2994
MEAN_ANOMALY   = 252.9564

EPHEMERIS_TYPE = 0
CLASSIFICATION_TYPE = U
NORAD_CAT_ID   = 24298
ELEMENT_SET_NO = 999
REV_AT_EPOCH   = 52515
BSTAR          = .10535924E-3
MEAN_MOTION_DOT = .145E-5
MEAN_MOTION_DDOT = 0

CCSDS_OMM_VERS = 2.0
CREATION_DATE  = 
ORIGINATOR     = 

OBJECT_NAME    = ORBVIEW 2 (SEASTAR)
OBJECT_ID      = 1997-037A
CENTER_NAME    = EARTH
REF_FRAME      = TEME
TIME_SYSTEM    = UTC
MEAN_ELEMENT_THEORY = SGP/SGP4

EPOCH          = 2026-04-03T10:34:42.805344
MEAN_MOTION    = 14.35513618
ECCENTRICITY   = .00021148
INCLINATION    = 98.8609
RA_OF_ASC_NODE = 258.4140
ARG_OF_PERICENTER = 16.1530
MEAN_ANOMALY   = 343.9722

EPHEMERIS_TYPE = 0
CLASSIFICATION_TYPE = U
NORAD_CAT_ID   = 24883
ELEMENT_SET_NO = 999
REV_AT_EPOCH   = 51202
BSTAR          = .17970933E-3
MEAN_MOTION_DOT = .47E-5
MEAN_MOTION_DDOT = 0

CCSDS_OMM_VERS = 2.0
CREATION_DATE  = 
ORIGINATOR     = 

OBJECT_NAME    = SL-16 R/B
OBJECT_ID      = 1998-043G
CENTER_NAME    = EARTH
REF_FRAME      = TEME
TIME_SYSTEM    = UTC
MEAN_ELEMENT_THEORY = SGP/SGP4

EPOCH          = 2026-04-03T13:39:53.407296
MEAN_MOTION    = 14.26055902
ECCENTRICITY   = .00089709
INCLINATION    = 98.8297
RA_OF_ASC_NODE = 47.1157
ARG_OF_PERICENTER = 306.5276
MEAN_ANOMALY   = 53.5077

EPHEMERIS_TYPE = 0
CLASSIFICATION_TYPE = U
NORAD_CAT_ID   = 25400
ELEMENT_SET_NO = 999
REV_AT_EPOCH   = 44253
BSTAR          = .68905864E-4
MEAN_MOTION_DOT = .119E-5
MEAN_MOTION_DDOT = 0

