COSMOS 2242             
1 22626U 93024A   26093.50777485  .00003947  00000+0  34304-3 0  9998
2 22626  82.5173 242.9710 0015468 218.0779 141.9351 14.96667696784103
SL-16 R/B               
1 22803U 93059B   26093.03914395  .00000014  00000+0  30476-4 0  9993
2 22803  70.9907 319.7812 0017134 180.6054 179.5052 14.17234614682985
ARIANE 40 R/B           
1 22830U 93061H   26093.62796557  .00000360  00000+0  14747-3 0  9995
2 22830  98.4871 162.0179 0010315 204.3371 155.7327 14.32875293697679
COSMOS 2278             
1 23087U 94023A   26093.49244014 -.00000001  00000+0  24198-4 0  9995
2 23087  71.0506 123.2078 0009319 336.5265  23.5431 14.14374884648310
SL-16 R/B               
1 23088U 94023B   26093.52774175  .00000218  00000+0  13708-3 0  9999
2 23088  71.0030  18.7238 0005571 263.9506  96.0981 14.15019299649601
SL-16 R/B               
1 23343U 94074B   26093.62554271  .00000832  00000+0  11806-3 0  9992
2 23343  97.7071 123.4294 0007660 131.8872 342.3107 14.79438623690936
SL-16 R/B               
1 23405U 94077B   26093.64097783 -.00000188  00000+0 -71576-4 0  9993
2 23405  70.9821 299.9976 0001622 190.7363 169.3725 14.15568311619761
ARIANE 40+ R/B          
1 23561U 95021B   26093.63898118  .00000501  00000+0  17360-3 0  9993
2 23561  98.4454 164.7782 0007850  72.3160  52.9936 14.39791701622834
SL-16 R/B               
1 23705U 95058B   26093.50785486 -.00000068  00000+0 -10658-4 0  9996
2 23705  71.0192 128.1524 0010269  80.2061 280.0221 14.15497860571369
SL-16 R/B               
1 24298U 96051B   26093.52843798  .00000145  00000+0  10536-3 0  9999
2 24298  70.7581 122.6662 0013136 107.2994 252.9564 14.12423229525157
ORBVIEW 2 (SEASTAR)     
1 24883U 97037A   26093.44077321  .00000470  00000+0  17971-3 0  9997
2 24883  98.8609 258.4140 0002114  16.1530 343.9722 14.35513618512022
SL-16 R/B               
1 25400U 98043G   26093.56936814  .00000119  00000+0  68906-4 0  9990
2 25400  98.8297  47.1157 0008970 306.5276  53.5077 14.26055902442533
